#dP2022  8  1  0  0  0.00000000      96 __u+U ITR00 FIT  IAC
## 2221  86400.00000000   900.00000000 59792 0.0000000000000
+  116   C06C07C08C09C10C11C12C13C14C16C19C20C21C22C23C24C25
+        C26C27C28C29C30C32C33C34C35C36C37C38C39C40C41C42C43
+        C44C45C46E01E02E03E04E05E07E08E09E10E11E12E13E14E15
+        E18E19E21E24E25E26E27E30E31E33E34E36G01G02G03G04G05
+        G06G07G08G09G10G11G12G13G14G15G16G17G18G19G20G21G22
+        G23G24G25G26G27G28G29G30G31G32J02J03R01R02R03R04R05
+        R07R08R09R11R12R13R14R15R17R18R19R20R21R24  0  0  0
++         0  0  0  0  0  0  0  0  0  0  0  0  0  0  0  0  0
++         0  0  0  0  0  0  0  0  0  0  0  0  0  0  0  0  0
++         0  0  0  0  0  0  0  0  0  0  0  0  0  0  0  0  0
++         0  0  0  0  0  0  0  0  0  0  0  0  0  0  0  0  0
++         0  0  0  0  0  0  0  0  0  0  0  0  0  0  0  0  0
++         0  0  0  0  0  0  0  0  0  0  0  0  0  0  0  0  0
++         0  0  0  0  0  0  0  0  0  0  0  0  0  0  0  0  0
%c M  cc GPS ccc cccc cccc cccc cccc ccccc ccccc ccccc ccccc
%c cc cc ccc ccc cccc cccc cccc cccc ccccc ccccc ccccc ccccc
%f  0.0000000  0.000000000  0.00000000000  0.000000000000000
%f  0.0000000  0.000000000  0.00000000000  0.000000000000000
%i    0    0    0    0      0      0      0      0         0
%i    0    0    0    0      0      0      0      0         0
/* INFORMATION & ANALYSIS CENTER (IAC)      ULTRA-RAPID DATA
/* S/V CLOCKS ARE ALIGNED TO GNSS TIME                      
/* G:C1WC2W R:C1PC2P E:C1XC5X C:C2IC6I J:C1CC2S             
/* PCV:IGS14_2215 OL/AL:FES2004  NONE     YN ORB:CoN CLK:CoN
*  2022 08 01 23 15  0.00000000
PC06  -1343.092088  32653.413750 -26490.803891    520.146466
PC07 -14031.861744  27121.119946  29046.445927   -508.976011
PC08 -14518.604809  39294.783879  -5541.237113    426.397580
PC09   4856.233284  36210.695420 -20230.202100   -908.914366
PC10  -6009.602844  27670.206168  31423.768630    112.871230
PC11 -19850.245823  -5726.934622  18800.014088   -494.727152
PC12 -18866.200697 -20198.073682   3795.033345   -562.108896
PC13 -10059.488652  39759.942954 -10274.251205     40.864578
PC14 -27628.873931   2491.269662   2734.379361    569.531484
PC16  -3200.386762  30728.073912 -28369.300863    143.202401
PC19  25652.752577  -8743.353702   6724.696666   -338.164623
PC20  25869.688524   2898.313794 -10092.048672   -964.949819
PC21 -10419.575378 -13642.549038  22007.698302   -101.731236
PC22  10652.012962 -15820.071358  20378.510445     -0.096151
PC23 -10247.820355  25956.322908   -150.757378   -955.437946
PC24 -14794.659461  -6917.923955 -22627.207523   -967.960005
PC25 -17464.227094  15062.190497 -15729.355920   -699.030986
PC26  -4547.428575 -22079.171827 -16434.411512    701.101530
PC27  14185.894233  23525.772808   4855.022089    763.362790
PC28   -692.581611  20428.787015  19001.369175     96.848122
PC29  15824.149663  -5362.429225 -22362.078584    589.673399
PC30  21721.740486  13022.409479 -11710.906634    501.679500
PC32  10489.994584  13578.676006 -21998.961850   -284.930159
PC33 -25623.787023   8829.730760  -6605.367957   -308.467123
PC34 -21747.182166 -12173.138752  12557.343042   -345.606847
PC35   1149.913996 -19834.927936 -19619.389896    393.072743
PC36  17903.215300 -14089.744406  16144.596742   -970.260798
PC37   3116.621479  22948.936343  15604.524505   -925.292116
PC38 -18177.692789  38060.337203   2512.072165     14.225356
PC39  -7032.851961  26856.253432 -31649.004213     -0.191600
PC40 -20437.538448  20767.017098  30376.682482     -1.601455
PC41 -11127.626341  15798.189490 -20083.862889   -130.402948
PC42 -25336.950373  -3675.438418  11114.816625    -41.533979
PC43 -16380.889807   4645.464112  22100.118767      6.254982
PC44 -14848.409490 -23097.233788  -5073.755082      4.049477
PC45  10050.859938 -26021.330132   -144.414681    824.217223
PC46  15371.518390   5130.489323  22727.450085   -463.924258
PE01 -24591.603892  15926.039065  -4213.354960   -526.626976
PE02  24546.894929 -16025.976326   4058.878719    315.711532
PE03  21657.973700  -6148.804401  19224.715750   -585.132471
PE04  -2787.139942  17055.087474 -24025.345317  -1084.335551
PE05  28166.733666   8599.052610   3012.714373   -157.436195
PE07 -18194.163752 -18126.520214  14711.750104   -692.823383
PE08   2532.162023 -16980.574288  24113.139254   -573.953410
PE09  18283.921982  17995.861501 -14777.040557   -608.300109
PE10   4373.588663  29272.188570    703.161169   -504.586441
PE11  10459.983548  25992.849953  -9551.509371   2793.287398
PE12  -2219.466701  27710.037666  10143.819541    -93.138147
PE13 -10087.218388 -26384.278798   8843.551524    430.068058
PE14 -21610.196933 -12017.298100    637.482135  -1761.772974
PE15   2242.987145 -27645.496133 -10338.771846    729.538525
PE18  28995.509752   5741.328583 -12189.310881  -1144.429447
PE19 -23338.721029   4154.290452 -17719.286171  -4926.559154
PE21 -22460.509399   1190.696489 -19235.572026   -749.371353
PE24   6269.113866  16069.529550  24051.018474   -757.623758
PE25  22326.694629   -918.708539  19424.259603   -583.117698
PE26 -16588.345387  -8641.920495  22934.826313  -1446.091642
PE27  -7380.157089 -15279.883831 -24243.104851   -358.568862
PE30  12754.416808 -22600.737214 -14230.677341   -720.443810
PE31 -11890.265843  22614.454856  14958.990558   -500.939417
PE33 -13180.484665  12597.116294  23314.276359   -454.190624
PE34  13098.064711 -12804.340060 -23261.861794   -488.832968
PE36  16398.160975   9646.474122 -22680.889788   -410.704754
PG01 -13147.993867   9753.095676  20523.034836    309.964907
PG02  14718.083607   9522.139573 -19286.084644   -650.156979
PG03 -23259.427315  12081.939256   3778.159358   -322.136777
PG04 -20401.406693   2208.832344 -16908.641059   -138.536600
PG05  21540.647978  -1925.621959 -15688.402738    -91.332693
PG06   6482.643032  24414.872331  -8024.554401    408.945801
PG07  -6243.270182  23206.290274 -10328.701732    316.770439
PG08 -24345.854396  -3684.593243  10361.100097    -78.710376
PG09 -10623.593904  11700.756623 -21423.005361   -312.828281
PG10   2619.334079 -17684.457121  19688.254899   -513.123731
PG11  12335.805415  15464.689066 -17739.993579    -10.462500
PG12  24220.201680  -9052.275997   5564.374250   -255.708027
PG13  22962.163278  13077.494333   3366.998021    359.889759
PG14  -4841.236132  18327.244297  18567.025641   -110.664598
PG15  24704.614677   1096.722380   9663.554868    -40.672363
PG16 -18457.353686  -4935.095000 -18912.070125   -518.508846
PG17   5157.516168  18036.425273  19212.888703    643.727584
PG18   6343.278690 -23502.998053 -10480.072708     95.067713
PG19  14228.186321  18925.221875  12024.868700    191.601371
PG20  13460.386373   8532.166515 -21216.716367    498.282103
PG21 -15702.851427   -840.429718  22080.419572    160.796284
PG22 -16071.604115 -18629.066199  10648.559382    302.549587
PG23  12859.189794 -19432.144581  12627.011612    -35.375015
PG24  14878.416061  -5554.022192  20941.541670    180.692853
PG25  18759.637835 -17645.156337  -6162.996713    356.048369
PG26 -10534.666008 -11813.676105 -21426.967342    221.485862
PG27 -23349.613274 -13030.291979  -1604.045545    220.628704
PG28   4179.271325  14978.340964  22061.515055    338.798713
PG29  11307.688686 -10231.024844 -21805.059796   -539.046694
PG30    633.264514  26406.588534   -528.961500   -535.183247
PG31  -8126.627253 -22814.597209 -10483.260052   -188.070632
PG32  -9024.974380 -18143.586483  17416.218317   -192.248539
PJ02 -30083.363994  29534.054317   5765.405288     -2.503816
PJ03 -24425.717367  25015.907926  28662.064381     -0.389985
PR01 -17462.789180   7964.666147 -16794.325124     12.445400
PR02   2471.761395  10857.458688 -22903.518881    525.761469
PR03  19592.555087   7418.602224 -14468.872008     61.168521
PR04  25437.704502      5.640820   1851.795577    152.561212
PR05  17355.271071  -7375.449265  17174.770859     97.219417
PR07 -20155.274138  -7208.756579  13947.152318     38.735374
PR08 -25450.927373    105.447684  -1851.424002    -66.498331
PR09   4907.761542 -21296.920352 -13198.048190     68.958055
PR11 -14872.461462   6913.279125 -19514.891349     31.650758
PR12 -14672.923133  20488.190533  -3964.924794     19.676868
PR13  -6049.067985  21608.325783  12119.994887    -25.263796
PR14   7131.053844   9427.038906  22619.914539     24.670960
PR15  15305.523597  -7574.678961  18976.756625     94.400169
PR17  14445.739652  19550.896565  -7805.038533    548.704845
PR18  13689.983821   6258.603470 -20571.243159     35.490681
PR19   6875.919094  -9015.859646 -22854.480048   -198.488364
PR20  -5815.606913 -22540.067277 -10469.040570    -75.753478
PR21 -14582.208564 -18724.595093   9299.436778   -322.177556
PR24   6626.965650  22629.482875   9767.804598    106.686473
EOF
